{"fetched_at":"2026-07-16T17:46:52.457Z","source":"https://celestrak.org/NORAD/elements/gp.php?NAME=PLEIADES&FORMAT=JSON","constellation":"pleiades","records":[{"OBJECT_NAME":"PLEIADES 1A","OBJECT_ID":"2011-076F","EPOCH":"2026-07-16T06:53:39.175008","CLASSIFICATION_TYPE":"U","MEAN_MOTION":14.58547099,"ECCENTRICITY":0.00016553,"INCLINATION":98.1974,"RA_OF_ASC_NODE":271.9975,"ARG_OF_PERICENTER":78.9433,"MEAN_ANOMALY":12.6878,"EPHEMERIS_TYPE":0,"NORAD_CAT_ID":38012,"ELEMENT_SET_NO":999,"REV_AT_EPOCH":77623,"BSTAR":0.000026887479,"MEAN_MOTION_DOT":7.9e-7,"MEAN_MOTION_DDOT":0},{"OBJECT_NAME":"PLEIADES 1B","OBJECT_ID":"2012-068A","EPOCH":"2026-07-16T07:17:28.396896","CLASSIFICATION_TYPE":"U","MEAN_MOTION":14.58534246,"ECCENTRICITY":0.00015643,"INCLINATION":98.1945,"RA_OF_ASC_NODE":271.9529,"ARG_OF_PERICENTER":79.0322,"MEAN_ANOMALY":281.1053,"EPHEMERIS_TYPE":0,"NORAD_CAT_ID":39019,"ELEMENT_SET_NO":999,"REV_AT_EPOCH":72509,"BSTAR":0.000003165569,"MEAN_MOTION_DOT":-3.1e-7,"MEAN_MOTION_DDOT":0}]}
