PLEIADES 1A             
1 38012U 11076F   26197.28725897  .00000079  00000+0  26887-4 0  9992
2 38012  98.1974 271.9975 0001655  78.9433  12.6878 14.58547099776234
PLEIADES 1B             
1 39019U 12068A   26197.30380089 -.00000031  00000+0  31656-5 0  9995
2 39019  98.1945 271.9529 0001564  79.0322 281.1053 14.58534246725099
